[{"OBJECT_NAME":"STARLINK-34582","OBJECT_ID":"2025-147AC","EPOCH":"2026-03-09T17:57:58.023936","MEAN_MOTION":15.30200104,"ECCENTRICITY":9.203e-5,"INCLINATION":53.1591,"RA_OF_ASC_NODE":242.2635,"ARG_OF_PERICENTER":68.7864,"MEAN_ANOMALY":291.3235,"EPHEMERIS_TYPE":0,"CLASSIFICATION_TYPE":"U","NORAD_CAT_ID":64781,"ELEMENT_SET_NO":999,"REV_AT_EPOCH":3869,"BSTAR":0.00081938054,"MEAN_MOTION_DOT":0.00023987,"MEAN_MOTION_DDOT":0},{"OBJECT_NAME":"COSMOS 1975","OBJECT_ID":"1988-093A","EPOCH":"2026-03-09T14:15:08.474112","MEAN_MOTION":15.28069249,"ECCENTRICITY":0.0012117,"INCLINATION":82.5181,"RA_OF_ASC_NODE":117.7814,"ARG_OF_PERICENTER":163.8427,"MEAN_ANOMALY":196.3201,"EPHEMERIS_TYPE":0,"CLASSIFICATION_TYPE":"U","NORAD_CAT_ID":19573,"ELEMENT_SET_NO":999,"REV_AT_EPOCH":1939,"BSTAR":0.0002787,"MEAN_MOTION_DOT":7.676e-5,"MEAN_MOTION_DDOT":0}]
